ONEWEB-0578             
1 56067U 23043X   24146.37846985  .00000119  00000+0  25735-3 0  9998
2 56067  87.9311  33.8261 0001758  80.4807 279.6525 13.21821924 58783
ONEWEB-0579             
1 56068U 23043Y   24146.74749267  .00000089  00000+0  18518-3 0  9992
2 56068  87.9316  33.7519 0002000  90.6365 269.4998 13.21824708 59759
ONEWEB-0581             
1 56069U 23043Z   24146.62836711 -.00001589  00000+0 -41904-2 0  9993
2 56069  87.9124  18.6094 0001384  98.4782 261.6506 13.16603463 59936
ONEWEB-0609             
1 56070U 23043AA  24147.20493873  .00000007  00000+0 -16418-4 0  9995
2 56070  87.9058  48.8633 0001989  79.5745 280.5610 13.15550808 58475
ONEWEB-0613             
1 56071U 23043AB  24146.43962446  .00000270  00000+0  68411-3 0  9997
2 56071  87.9072  49.0094 0002117  86.0585 274.0787 13.15548719 57464
ONEWEB-0630             
1 56072U 23043AC  24146.43487453  .00000154  00000+0  37399-3 0  9990
2 56072  87.9057  49.0034 0002223  91.8886 268.2499 13.15547012 57457
ONEWEB-0632             
1 56073U 23043AD  24146.43012062  .00000050  00000+0  98043-4 0  9990
2 56073  87.9056  49.0230 0001678  89.3480 270.7842 13.15547377 57454
ONEWEB-0633             
1 56074U 23043AE  24146.42376868  .00000242  00000+0  60924-3 0  9996
2 56074  87.9055  49.0064 0002315  84.1088 276.0306 13.15550181 57434
